{
  "type": "FeatureCollection",
  "features": [
    {
      "type": "Feature",
      "properties": {
        "norad_id": 40803,
        "name": "COSMOS 2251 DEB",
        "group": "cosmos-2251-debris",
        "lat": 24.869656759208144,
        "lon": 50.1040836903644,
        "alt_km": 734.7946538177757,
        "timestamp": "2025-12-17T17:50:19.649178+00:00",
        "meta_object_name": "COSMOS 2251 DEB",
        "meta_object_id": "1993-036BWG",
        "meta_epoch": "2025-12-05T22:55:29.451072",
        "meta_mean_motion": 14.51792027,
        "meta_eccentricity": 0.00362816,
        "meta_inclination": 74.0122,
        "meta_ra_of_asc_node": 64.6912,
        "meta_arg_of_pericenter": 281.8159,
        "meta_mean_anomaly": 77.8934,
        "meta_ephemeris_type": 0,
        "meta_classification_type": "U",
        "meta_norad_cat_id": 40803,
        "meta_element_set_no": 999,
        "meta_rev_at_epoch": 58654,
        "meta_bstar": 0.00062935795,
        "meta_mean_motion_dot": 2.525e-05,
        "meta_mean_motion_ddot": 0,
        "tle_line1": "1 40803U 93036BWG 25339.95520198  .00002525  00000+0  62936-3 0  9999",
        "tle_line2": "2 40803  74.0122  64.6912 0036281 281.8159  77.8934 14.51792027586549"
      },
      "geometry": {
        "type": "Point",
        "coordinates": [
          50.1040836903644,
          24.869656759208144
        ]
      }
    },
    {
      "type": "Feature",
      "properties": {
        "norad_id": 40808,
        "name": "COSMOS 2251 DEB",
        "group": "cosmos-2251-debris",
        "lat": -41.15946571290843,
        "lon": -29.6992310983777,
        "alt_km": 670.9885092544164,
        "timestamp": "2025-12-17T17:50:19.649188+00:00",
        "meta_object_name": "COSMOS 2251 DEB",
        "meta_object_id": "1993-036BWM",
        "meta_epoch": "2025-12-14T10:26:23.947296",
        "meta_mean_motion": 14.67521504,
        "meta_eccentricity": 0.00090305,
        "meta_inclination": 74.0408,
        "meta_ra_of_asc_node": 142.1983,
        "meta_arg_of_pericenter": 179.2198,
        "meta_mean_anomaly": 212.7135,
        "meta_ephemeris_type": 0,
        "meta_classification_type": "U",
        "meta_norad_cat_id": 40808,
        "meta_element_set_no": 999,
        "meta_rev_at_epoch": 63644,
        "meta_bstar": 0.0018628383,
        "meta_mean_motion_dot": 0.00010555,
        "meta_mean_motion_ddot": 0,
        "tle_line1": "1 40808U 93036BWM 25348.43499939  .00010555  00000+0  18628-2 0  9995",
        "tle_line2": "2 40808  74.0408 142.1983 0009030 179.2198 212.7135 14.67521504636441"
      },
      "geometry": {
        "type": "Point",
        "coordinates": [
          -29.6992310983777,
          -41.15946571290843
        ]
      }
    },
    {
      "type": "Feature",
      "properties": {
        "norad_id": 40810,
        "name": "COSMOS 2251 DEB",
        "group": "cosmos-2251-debris",
        "lat": -17.198188525992197,
        "lon": 60.126939940552646,
        "alt_km": 709.443880307831,
        "timestamp": "2025-12-17T17:50:19.649198+00:00",
        "meta_object_name": "COSMOS 2251 DEB",
        "meta_object_id": "1993-036BWP",
        "meta_epoch": "2025-12-15T05:01:17.555808",
        "meta_mean_motion": 14.58738297,
        "meta_eccentricity": 0.00184081,
        "meta_inclination": 74.0368,
        "meta_ra_of_asc_node": 70.0332,
        "meta_arg_of_pericenter": 221.6033,
        "meta_mean_anomaly": 138.3733,
        "meta_ephemeris_type": 0,
        "meta_classification_type": "U",
        "meta_norad_cat_id": 40810,
        "meta_element_set_no": 999,
        "meta_rev_at_epoch": 61719,
        "meta_bstar": 0.00049187083,
        "meta_mean_motion_dot": 2.273e-05,
        "meta_mean_motion_ddot": 0,
        "tle_line1": "1 40810U 93036BWP 25349.20923097  .00002273  00000+0  49187-3 0  9994",
        "tle_line2": "2 40810  74.0368  70.0332 0018408 221.6033 138.3733 14.58738297617192"
      },
      "geometry": {
        "type": "Point",
        "coordinates": [
          60.126939940552646,
          -17.198188525992197
        ]
      }
    },
    {
      "type": "Feature",
      "properties": {
        "norad_id": 46271,
        "name": "COSMOS 2251 DEB",
        "group": "cosmos-2251-debris",
        "lat": 74.03397279608977,
        "lon": 157.34956014326846,
        "alt_km": 718.2355253200803,
        "timestamp": "2025-12-17T17:50:19.649209+00:00",
        "meta_object_name": "COSMOS 2251 DEB",
        "meta_object_id": "1993-036BWT",
        "meta_epoch": "2025-12-14T23:15:23.859360",
        "meta_mean_motion": 14.51434388,
        "meta_eccentricity": 0.00401696,
        "meta_inclination": 74.0488,
        "meta_ra_of_asc_node": 74.0218,
        "meta_arg_of_pericenter": 195.2544,
        "meta_mean_anomaly": 164.741,
        "meta_ephemeris_type": 0,
        "meta_classification_type": "U",
        "meta_norad_cat_id": 46271,
        "meta_element_set_no": 999,
        "meta_rev_at_epoch": 84674,
        "meta_bstar": 0.00028085517,
        "meta_mean_motion_dot": 1.104e-05,
        "meta_mean_motion_ddot": 0,
        "tle_line1": "1 46271U 93036BWT 25348.96902615  .00001104  00000+0  28086-3 0  9993",
        "tle_line2": "2 46271  74.0488  74.0218 0040169 195.2544 164.7410 14.51434388846748"
      },
      "geometry": {
        "type": "Point",
        "coordinates": [
          157.34956014326846,
          74.03397279608977
        ]
      }
    },
    {
      "type": "Feature",
      "properties": {
        "norad_id": 46430,
        "name": "COSMOS 2251 DEB",
        "group": "cosmos-2251-debris",
        "lat": 26.039542937278714,
        "lon": 158.75783961246935,
        "alt_km": 748.135872584201,
        "timestamp": "2025-12-17T17:50:19.649219+00:00",
        "meta_object_name": "COSMOS 2251 DEB",
        "meta_object_id": "1993-036BWU",
        "meta_epoch": "2025-12-12T18:01:09.115680",
        "meta_mean_motion": 14.51304268,
        "meta_eccentricity": 0.01036453,
        "meta_inclination": 73.9144,
        "meta_ra_of_asc_node": 356.326,
        "meta_arg_of_pericenter": 276.5668,
        "meta_mean_anomaly": 82.3702,
        "meta_ephemeris_type": 0,
        "meta_classification_type": "U",
        "meta_norad_cat_id": 46430,
        "meta_element_set_no": 999,
        "meta_rev_at_epoch": 79683,
        "meta_bstar": 0.0031599798,
        "meta_mean_motion_dot": 0.00013483,
        "meta_mean_motion_ddot": 0,
        "tle_line1": "1 46430U 93036BWU 25346.75079995  .00013483  00000+0  31600-2 0  9999",
        "tle_line2": "2 46430  73.9144 356.3260 0103645 276.5668  82.3702 14.51304268796830"
      },
      "geometry": {
        "type": "Point",
        "coordinates": [
          158.75783961246935,
          26.039542937278714
        ]
      }
    },
    {
      "type": "Feature",
      "properties": {
        "norad_id": 46432,
        "name": "COSMOS 2251 DEB",
        "group": "cosmos-2251-debris",
        "lat": 17.469403466520486,
        "lon": 108.63450540132807,
        "alt_km": 1449.4290832883107,
        "timestamp": "2025-12-17T17:50:19.649230+00:00",
        "meta_object_name": "COSMOS 2251 DEB",
        "meta_object_id": "1993-036BWW",
        "meta_epoch": "2025-12-16T14:54:01.415808",
        "meta_mean_motion": 13.36645779,
        "meta_eccentricity": 0.04740577,
        "meta_inclination": 73.8726,
        "meta_ra_of_asc_node": 105.1782,
        "meta_arg_of_pericenter": 222.0894,
        "meta_mean_anomaly": 155.0222,
        "meta_ephemeris_type": 0,
        "meta_classification_type": "U",
        "meta_norad_cat_id": 46432,
        "meta_element_set_no": 999,
        "meta_rev_at_epoch": 67018,
        "meta_bstar": 0.0010887976,
        "meta_mean_motion_dot": 1.051e-05,
        "meta_mean_motion_ddot": 0,
        "tle_line1": "1 46432U 93036BWW 25350.62084972  .00001051  00000+0  10888-2 0  9996",
        "tle_line2": "2 46432  73.8726 105.1782 0474057 222.0894 155.0222 13.36645779670182"
      },
      "geometry": {
        "type": "Point",
        "coordinates": [
          108.63450540132807,
          17.469403466520486
        ]
      }
    },
    {
      "type": "Feature",
      "properties": {
        "norad_id": 47045,
        "name": "COSMOS 2251 DEB",
        "group": "cosmos-2251-debris",
        "lat": 71.08193305990066,
        "lon": -96.56549954570731,
        "alt_km": 776.4640971595427,
        "timestamp": "2025-12-17T17:50:19.649240+00:00",
        "meta_object_name": "COSMOS 2251 DEB",
        "meta_object_id": "1993-036BWZ",
        "meta_epoch": "2025-12-08T18:12:30.966336",
        "meta_mean_motion": 14.3889696,
        "meta_eccentricity": 0.00302024,
        "meta_inclination": 74.0568,
        "meta_ra_of_asc_node": 156.4972,
        "meta_arg_of_pericenter": 298.2595,
        "meta_mean_anomaly": 80.2379,
        "meta_ephemeris_type": 0,
        "meta_classification_type": "U",
        "meta_norad_cat_id": 47045,
        "meta_element_set_no": 999,
        "meta_rev_at_epoch": 7748,
        "meta_bstar": 0.00016053941,
        "meta_mean_motion_dot": 4.71e-06,
        "meta_mean_motion_ddot": 0,
        "tle_line1": "1 47045U 93036BWZ 25342.75869174  .00000471  00000+0  16054-3 0  9994",
        "tle_line2": "2 47045  74.0568 156.4972 0030202 298.2595  80.2379 14.38896960 77482"
      },
      "geometry": {
        "type": "Point",
        "coordinates": [
          -96.56549954570731,
          71.08193305990066
        ]
      }
    }
  ]
}